start=new Date('2023-02-06T00:00:00.000Z').valueOf();
sats=[{"CENTER_NAME":"EARTH","FILE":"3774172","TLE_LINE2":"2 52618  53.2149 292.0657 0001210  91.7083 268.4047 15.08838143 40726","ARG_OF_PERICENTER":"91.7083","BSTAR":"0.00063343000000","MEAN_MOTION_DDOT":"0.0000000000000","MEAN_ANOMALY":"268.4047","REF_FRAME":"TEME","RA_OF_ASC_NODE":"292.0657","OBJECT_TYPE":"PAYLOAD","SEMIMAJOR_AXIS":"6917.886","TIME_SYSTEM":"UTC","ECCENTRICITY":"0.00012100","ELEMENT_SET_NO":"999","REV_AT_EPOCH":"4072","EPHEMERIS_TYPE":"0","DECAY_DATE":null,"OBJECT_ID":"2022-052W","TLE_LINE1":"1 52618U 22052W   23036.87902990  .00009807  00000-0  63343-3 0  9997","MEAN_MOTION_DOT":"0.00009807","EPOCH":"2023-02-05T21:05:48.183360","APOAPSIS":"540.588","LAUNCH_DATE":"2022-05-14","SITE":"AFETR","OBJECT_NAME":"STARLINK-3983","GP_ID":"224559046","COUNTRY_CODE":"US","MEAN_MOTION":"15.08838143","PERIAPSIS":"538.914","INCLINATION":"53.2149","PERIOD":"95.438","NORAD_CAT_ID":"52618","RCS_SIZE":"LARGE","MEAN_ELEMENT_THEORY":"SGP4","CLASSIFICATION_TYPE":"U"},{"TIME_SYSTEM":"UTC","ELEMENT_SET_NO":"999","ECCENTRICITY":"0.00010590","REV_AT_EPOCH":"4073","DECAY_DATE":null,"OBJECT_ID":"2022-052X","EPHEMERIS_TYPE":"0","MEAN_MOTION_DDOT":"0.0000000000000","BSTAR":"0.00021605000000","MEAN_ANOMALY":"271.6997","REF_FRAME":"TEME","RA_OF_ASC_NODE":"291.8030","OBJECT_TYPE":"PAYLOAD","SEMIMAJOR_AXIS":"6917.866","ARG_OF_PERICENTER":"88.4117","FILE":"3774172","CENTER_NAME":"EARTH","TLE_LINE2":"2 52619  53.2124 291.8030 0001059  88.4117 271.6997 15.08844664 40730","CLASSIFICATION_TYPE":"U","PERIOD":"95.437","NORAD_CAT_ID":"52619","RCS_SIZE":"LARGE","MEAN_ELEMENT_THEORY":"SGP4","GP_ID":"224559782","OBJECT_NAME":"STARLINK-3741","COUNTRY_CODE":"US","INCLINATION":"53.2124","MEAN_MOTION":"15.08844664","PERIAPSIS":"538.999","MEAN_MOTION_DOT":"0.00003153","TLE_LINE1":"1 52619U 22052X   23036.93885957  .00003153  00000-0  21605-3 0  9991","APOAPSIS":"540.464","EPOCH":"2023-02-05T22:31:57.466848","LAUNCH_DATE":"2022-05-14","SITE":"AFETR"},{"LAUNCH_DATE":"2022-05-14","SITE":"AFETR","MEAN_MOTION_DOT":"0.00003239","TLE_LINE1":"1 52620U 22052Y   23036.93468762  .00003239  00000-0  22152-3 0  9997","APOAPSIS":"540.684","EPOCH":"2023-02-05T22:25:57.010368","INCLINATION":"53.2164","PERIAPSIS":"538.819","MEAN_MOTION":"15.08837994","GP_ID":"224558545","OBJECT_NAME":"STARLINK-3975","COUNTRY_CODE":"US","RCS_SIZE":"LARGE","MEAN_ELEMENT_THEORY":"SGP4","PERIOD":"95.438","NORAD_CAT_ID":"52620","CLASSIFICATION_TYPE":"U","TLE_LINE2":"2 52620  53.2164 306.8120 0001348  82.5971 277.5174 15.08837994 40524","CENTER_NAME":"EARTH","FILE":"3774172","ARG_OF_PERICENTER":"82.5971","RA_OF_ASC_NODE":"306.8120","REF_FRAME":"TEME","SEMIMAJOR_AXIS":"6917.887","OBJECT_TYPE":"PAYLOAD","MEAN_MOTION_DDOT":"0.0000000000000","BSTAR":"0.00022152000000","MEAN_ANOMALY":"277.5174","REV_AT_EPOCH":"4052","DECAY_DATE":null,"OBJECT_ID":"2022-052Y","EPHEMERIS_TYPE":"0","TIME_SYSTEM":"UTC","ELEMENT_SET_NO":"999","ECCENTRICITY":"0.00013480"},{"ELEMENT_SET_NO":"999","ECCENTRICITY":"0.00012340","TIME_SYSTEM":"UTC","DECAY_DATE":null,"OBJECT_ID":"2022-052Z","EPHEMERIS_TYPE":"0","REV_AT_EPOCH":"4073","MEAN_ANOMALY":"270.9309","MEAN_MOTION_DDOT":"0.0000000000000","BSTAR":"0.00002546500000","OBJECT_TYPE":"PAYLOAD","SEMIMAJOR_AXIS":"6917.904","REF_FRAME":"TEME","RA_OF_ASC_NODE":"291.8318","ARG_OF_PERICENTER":"89.1825","FILE":"3774172","CENTER_NAME":"EARTH","TLE_LINE2":"2 52621  53.2162 291.8318 0001234  89.1825 270.9309 15.08832141 40739","CLASSIFICATION_TYPE":"U","NORAD_CAT_ID":"52621","PERIOD":"95.438","MEAN_ELEMENT_THEORY":"SGP4","RCS_SIZE":"LARGE","COUNTRY_CODE":"US","GP_ID":"224558296","OBJECT_NAME":"STARLINK-3984","INCLINATION":"53.2162","MEAN_MOTION":"15.08832141","PERIAPSIS":"538.916","APOAPSIS":"540.623","EPOCH":"2023-02-05T22:19:59.756736","MEAN_MOTION_DOT":"0.00000117","TLE_LINE1":"1 52621U 22052Z   23036.93055274  .00000117  00000-0  25465-4 0  9991","SITE":"AFETR","LAUNCH_DATE":"2022-05-14"},{"LAUNCH_DATE":"2022-05-14","SITE":"AFETR","TLE_LINE1":"1 52622U 22052AA  23036.89788806 -.00000211  00000-0  48520-5 0  9995","MEAN_MOTION_DOT":"-0.00000211","EPOCH":"2023-02-05T21:32:57.528384","APOAPSIS":"540.688","MEAN_MOTION":"15.08835387","PERIAPSIS":"538.831","INCLINATION":"53.2150","OBJECT_NAME":"STARLINK-4008","GP_ID":"224559546","COUNTRY_CODE":"US","RCS_SIZE":"LARGE","MEAN_ELEMENT_THEORY":"SGP4","PERIOD":"95.438","NORAD_CAT_ID":"52622","CLASSIFICATION_TYPE":"U","TLE_LINE2":"2 52622  53.2150 306.9794 0001342 108.9824 251.1314 15.08835387 40521","FILE":"3774172","CENTER_NAME":"EARTH","ARG_OF_PERICENTER":"108.9824","REF_FRAME":"TEME","RA_OF_ASC_NODE":"306.9794","OBJECT_TYPE":"PAYLOAD","SEMIMAJOR_AXIS":"6917.894","BSTAR":"0.00000485200000","MEAN_MOTION_DDOT":"0.0000000000000","MEAN_ANOMALY":"251.1314","REV_AT_EPOCH":"4052","EPHEMERIS_TYPE":"0","DECAY_DATE":null,"OBJECT_ID":"2022-052AA","TIME_SYSTEM":"UTC","ECCENTRICITY":"0.00013420","ELEMENT_SET_NO":"999"},{"TIME_SYSTEM":"UTC","ECCENTRICITY":"0.00012800","ELEMENT_SET_NO":"999","REV_AT_EPOCH":"4073","EPHEMERIS_TYPE":"0","DECAY_DATE":null,"OBJECT_ID":"2022-052AB","BSTAR":"0.00024825000000","MEAN_MOTION_DDOT":"0.0000000000000","MEAN_ANOMALY":"269.2939","RA_OF_ASC_NODE":"291.8474","REF_FRAME":"TEME","OBJECT_TYPE":"PAYLOAD","SEMIMAJOR_AXIS":"6917.884","ARG_OF_PERICENTER":"90.8200","FILE":"3774172","CENTER_NAME":"EARTH","TLE_LINE2":"2 52623  53.2159 291.8474 0001280  90.8200 269.2939 15.08838660 40739","CLASSIFICATION_TYPE":"U","PERIOD":"95.438","NORAD_CAT_ID":"52623","RCS_SIZE":"LARGE","MEAN_ELEMENT_THEORY":"SGP4","OBJECT_NAME":"STARLINK-3986","GP_ID":"224559283","COUNTRY_CODE":"US","MEAN_MOTION":"15.08838660","PERIAPSIS":"538.864","INCLINATION":"53.2159","TLE_LINE1":"1 52623U 22052AB  23036.92686899  .00003665  00000-0  24825-3 0  9994","MEAN_MOTION_DOT":"0.00003665","EPOCH":"2023-02-05T22:14:41.480736","APOAPSIS":"540.635","LAUNCH_DATE":"2022-05-14","SITE":"AFETR"},{"MEAN_MOTION":"15.09019101","PERIAPSIS":"538.246","INCLINATION":"53.2155","COUNTRY_CODE":"US","OBJECT_NAME":"STARLINK-4009","GP_ID":"224558046","SITE":"AFETR","LAUNCH_DATE":"2022-05-14","EPOCH":"2023-02-05T22:29:20.378688","APOAPSIS":"540.150","TLE_LINE1":"1 52624U 22052AC  23036.93704142  .00025936  00000-0  16337-2 0  9991","MEAN_MOTION_DOT":"0.00025936","CLASSIFICATION_TYPE":"U","MEAN_ELEMENT_THEORY":"SGP4","RCS_SIZE":"LARGE","NORAD_CAT_ID":"52624","PERIOD":"95.426","ARG_OF_PERICENTER":"109.7079","TLE_LINE2":"2 52624  53.2155 291.7976 0001376 109.7079 250.4061 15.09019101 40732","FILE":"3774172","CENTER_NAME":"EARTH","EPHEMERIS_TYPE":"0","DECAY_DATE":null,"OBJECT_ID":"2022-052AC","REV_AT_EPOCH":"4073","ECCENTRICITY":"0.00013760","ELEMENT_SET_NO":"999","TIME_SYSTEM":"UTC","SEMIMAJOR_AXIS":"6917.333","OBJECT_TYPE":"PAYLOAD","REF_FRAME":"TEME","RA_OF_ASC_NODE":"291.7976","MEAN_ANOMALY":"250.4061","BSTAR":"0.00163370000000","MEAN_MOTION_DDOT":"0.0000000000000"},{"ELEMENT_SET_NO":"999","ECCENTRICITY":"0.00016510","TIME_SYSTEM":"UTC","DECAY_DATE":null,"OBJECT_ID":"2022-052AD","EPHEMERIS_TYPE":"0","REV_AT_EPOCH":"4073","MEAN_ANOMALY":"260.9708","MEAN_MOTION_DDOT":"0.0000000000000","BSTAR":"0.00007204500000","SEMIMAJOR_AXIS":"6917.880","OBJECT_TYPE":"PAYLOAD","RA_OF_ASC_NODE":"291.8660","REF_FRAME":"TEME","ARG_OF_PERICENTER":"99.1471","CENTER_NAME":"EARTH","FILE":"3774172","TLE_LINE2":"2 52625  53.2149 291.8660 0001651  99.1471 260.9708 15.08840193 40737","CLASSIFICATION_TYPE":"U","NORAD_CAT_ID":"52625","PERIOD":"95.438","MEAN_ELEMENT_THEORY":"SGP4","RCS_SIZE":"LARGE","COUNTRY_CODE":"US","GP_ID":"224558796","OBJECT_NAME":"STARLINK-3988","INCLINATION":"53.2149","MEAN_MOTION":"15.08840193","PERIAPSIS":"538.603","APOAPSIS":"540.887","EPOCH":"2023-02-05T22:09:23.268672","MEAN_MOTION_DOT":"0.00000859","TLE_LINE1":"1 52625U 22052AD  23036.92318598  .00000859  00000-0  72045-4 0  9994","SITE":"AFETR","LAUNCH_DATE":"2022-05-14"},{"COUNTRY_CODE":"US","GP_ID":"224559047","OBJECT_NAME":"STARLINK-3990","INCLINATION":"53.2130","MEAN_MOTION":"15.08839520","PERIAPSIS":"538.868","APOAPSIS":"540.625","EPOCH":"2023-02-05T20:49:54.255648","MEAN_MOTION_DOT":"0.00011933","TLE_LINE1":"1 52626U 22052AE  23036.86798907  .00011933  00000-0  76660-3 0  9995","SITE":"AFETR","LAUNCH_DATE":"2022-05-14","CLASSIFICATION_TYPE":"U","NORAD_CAT_ID":"52626","PERIOD":"95.438","MEAN_ELEMENT_THEORY":"SGP4","RCS_SIZE":"LARGE","ARG_OF_PERICENTER":"110.8800","FILE":"3774172","CENTER_NAME":"EARTH","TLE_LINE2":"2 52626  53.2130 292.1171 0001270 110.8800 249.2328 15.08839520 40722","ELEMENT_SET_NO":"999","ECCENTRICITY":"0.00012700","TIME_SYSTEM":"UTC","DECAY_DATE":null,"OBJECT_ID":"2022-052AE","EPHEMERIS_TYPE":"0","REV_AT_EPOCH":"4072","MEAN_ANOMALY":"249.2328","MEAN_MOTION_DDOT":"0.0000000000000","BSTAR":"0.00076660000000","SEMIMAJOR_AXIS":"6917.882","OBJECT_TYPE":"PAYLOAD","REF_FRAME":"TEME","RA_OF_ASC_NODE":"292.1171"},{"ARG_OF_PERICENTER":"93.1332","TLE_LINE2":"2 52627  53.2133 291.9159 0001166  93.1332 266.9794 15.08843661 40742","FILE":"3774172","CENTER_NAME":"EARTH","EPHEMERIS_TYPE":"0","OBJECT_ID":"2022-052AF","DECAY_DATE":null,"REV_AT_EPOCH":"4074","ECCENTRICITY":"0.00011660","ELEMENT_SET_NO":"999","TIME_SYSTEM":"UTC","SEMIMAJOR_AXIS":"6917.869","OBJECT_TYPE":"PAYLOAD","RA_OF_ASC_NODE":"291.9159","REF_FRAME":"TEME","MEAN_ANOMALY":"266.9794","BSTAR":"0.00028847000000","MEAN_MOTION_DDOT":"0.0000000000000","PERIAPSIS":"538.928","MEAN_MOTION":"15.08843661","INCLINATION":"53.2133","COUNTRY_CODE":"US","OBJECT_NAME":"STARLINK-3992","GP_ID":"224559783","SITE":"AFETR","LAUNCH_DATE":"2022-05-14","EPOCH":"2023-02-05T21:53:29.493024","APOAPSIS":"540.541","TLE_LINE1":"1 52627U 22052AF  23036.91214691  .00004307  00000-0  28847-3 0  9996","MEAN_MOTION_DOT":"0.00004307","CLASSIFICATION_TYPE":"U","MEAN_ELEMENT_THEORY":"SGP4","RCS_SIZE":"LARGE","NORAD_CAT_ID":"52627","PERIOD":"95.437"}];
